[{"OBJECT_NAME":"FLOCK 4G-13","OBJECT_ID":"2025-009N","EPOCH":"2026-03-09T16:57:12.071808","MEAN_MOTION":15.32770015,"ECCENTRICITY":0.0003801,"INCLINATION":97.4019,"RA_OF_ASC_NODE":151.0918,"ARG_OF_PERICENTER":292.7207,"MEAN_ANOMALY":67.3633,"EPHEMERIS_TYPE":0,"CLASSIFICATION_TYPE":"U","NORAD_CAT_ID":62621,"ELEMENT_SET_NO":999,"REV_AT_EPOCH":6370,"BSTAR":0.0016695386,"MEAN_MOTION_DOT":0.00053076,"MEAN_MOTION_DDOT":0},{"OBJECT_NAME":"STARLINK-32738","OBJECT_ID":"2025-034T","EPOCH":"2026-03-09T17:01:57.684288","MEAN_MOTION":15.30207624,"ECCENTRICITY":6.133e-5,"INCLINATION":53.1612,"RA_OF_ASC_NODE":257.7598,"ARG_OF_PERICENTER":28.0915,"MEAN_ANOMALY":332.0119,"EPHEMERIS_TYPE":0,"CLASSIFICATION_TYPE":"U","NORAD_CAT_ID":63046,"ELEMENT_SET_NO":999,"REV_AT_EPOCH":5909,"BSTAR":0.00084608552,"MEAN_MOTION_DOT":0.00024789,"MEAN_MOTION_DDOT":0}]
