FLOCK 4G-13             
1 62621U 25009N   26068.70638971  .00053076  00000+0  16695-2 0  9995
2 62621  97.4019 151.0918 0003801 292.7207  67.3633 15.32770015 63700
STARLINK-32738          
1 63046U 25034T   26068.70969542  .00024789  00000+0  84609-3 0  9996
2 63046  53.1612 257.7598 0000613  28.0915 332.0119 15.30207624 59099
